ORBCOMM FM24            
1 25478U 98053D   25358.96481866  .00001193  00000+0  43157-3 0  9998
2 25478  45.0079  84.1623 0002105 161.9139 198.1785 14.38684888424912
ORBCOMM FM25            
1 25479U 98053E   25358.94013538  .00001179  00000+0  42731-3 0  9995
2 25479  45.0071  82.5801 0004348 147.4961 212.6156 14.38651948425206
ORBCOMM FM26            
1 25480U 98053F   25359.22065248  .00000928  00000+0  35306-3 0  9995
2 25480  45.0069  79.1394 0006542 157.8821 202.2311 14.37621357425132
ORBCOMM FM27            
1 25481U 98053G   25359.27066888  .00001294  00000+0  46393-3 0  9997
2 25481  45.0056  81.1403 0001935 208.1114 151.9631 14.38689352425189
ORBCOMM FM28            
1 25482U 98053H   25358.80099460  .00000909  00000+0  33883-3 0  9990
2 25482  45.0063  20.6361 0005069 203.7062 156.3553 14.38812598425805
ORBCOMM FM30            
1 25980U 99065A   25359.11925178  .00000811  00000+0  31362-3 0  9998
2 25980  45.0315 265.6606 0006380 258.8876 101.1255 14.37788398361920
ORBCOMM FM31            
1 25981U 99065B   25359.10149796  .00000750  00000+0  29409-3 0  9993
2 25981  45.0225 259.1960 0004388 289.0547  70.9826 14.37715531361475
ORBCOMM FM32            
1 25982U 99065C   25359.20447504  .00000878  00000+0  34235-3 0  9997
2 25982  45.0158 276.5631 0006852 279.5674  80.4400 14.36774117362066
